{
  "type": "FeatureCollection",
  "features": [
    {
      "type": "Feature",
      "properties": {
        "norad_id": 31663,
        "name": "FENGYUN 1C DEB",
        "group": "fengyun-1c-debris",
        "lat": 30.43549281217069,
        "lon": -119.12617376105348,
        "alt_km": 721.4411976339798,
        "timestamp": "2025-12-04T23:34:06.006217+00:00",
        "meta_object_name": "FENGYUN 1C DEB",
        "meta_object_id": "1999-025CBV",
        "meta_epoch": "2025-12-03T11:38:28.212864",
        "meta_mean_motion": 14.76310711,
        "meta_eccentricity": 0.01897685,
        "meta_inclination": 98.838,
        "meta_ra_of_asc_node": 244.4812,
        "meta_arg_of_pericenter": 266.7407,
        "meta_mean_anomaly": 91.2075,
        "meta_ephemeris_type": 0,
        "meta_classification_type": "U",
        "meta_norad_cat_id": 31663,
        "meta_element_set_no": 999,
        "meta_rev_at_epoch": 99143,
        "meta_bstar": 0.0005527041,
        "meta_mean_motion_dot": 5.081e-05,
        "meta_mean_motion_ddot": 0,
        "tle_line1": "1 31663U 99025CBV 25337.48504876  .00005081  00000+0  55270-3 0  9991",
        "tle_line2": "2 31663  98.8380 244.4812 0189768 266.7407  91.2075 14.76310711991434"
      },
      "geometry": {
        "type": "Point",
        "coordinates": [
          -119.12617376105348,
          30.43549281217069
        ]
      }
    },
    {
      "type": "Feature",
      "properties": {
        "norad_id": 31664,
        "name": "FENGYUN 1C DEB",
        "group": "fengyun-1c-debris",
        "lat": -74.20159681859334,
        "lon": 117.7159232353336,
        "alt_km": 843.9022167773965,
        "timestamp": "2025-12-04T23:34:06.006227+00:00",
        "meta_object_name": "FENGYUN 1C DEB",
        "meta_object_id": "1999-025CBW",
        "meta_epoch": "2025-12-03T10:36:10.391616",
        "meta_mean_motion": 14.10277836,
        "meta_eccentricity": 0.01244156,
        "meta_inclination": 98.7516,
        "meta_ra_of_asc_node": 329.2022,
        "meta_arg_of_pericenter": 184.4459,
        "meta_mean_anomaly": 175.5617,
        "meta_ephemeris_type": 0,
        "meta_classification_type": "U",
        "meta_norad_cat_id": 31664,
        "meta_element_set_no": 999,
        "meta_rev_at_epoch": 95870,
        "meta_bstar": 0.00040064903,
        "meta_mean_motion_dot": 7.21e-06,
        "meta_mean_motion_ddot": 0,
        "tle_line1": "1 31664U 99025CBW 25337.44178694  .00000721  00000+0  40065-3 0  9995",
        "tle_line2": "2 31664  98.7516 329.2022 0124415 184.4459 175.5617 14.10277836958700"
      },
      "geometry": {
        "type": "Point",
        "coordinates": [
          117.7159232353336,
          -74.20159681859334
        ]
      }
    },
    {
      "type": "Feature",
      "properties": {
        "norad_id": 31665,
        "name": "FENGYUN 1C DEB",
        "group": "fengyun-1c-debris",
        "lat": -80.74050897261147,
        "lon": 88.4794229172745,
        "alt_km": 894.7455862079105,
        "timestamp": "2025-12-04T23:34:06.006237+00:00",
        "meta_object_name": "FENGYUN 1C DEB",
        "meta_object_id": "1999-025CBX",
        "meta_epoch": "2025-11-29T13:55:45.257088",
        "meta_mean_motion": 13.84758836,
        "meta_eccentricity": 0.01900248,
        "meta_inclination": 98.4512,
        "meta_ra_of_asc_node": 17.8375,
        "meta_arg_of_pericenter": 222.9369,
        "meta_mean_anomaly": 135.6823,
        "meta_ephemeris_type": 0,
        "meta_classification_type": "U",
        "meta_norad_cat_id": 31665,
        "meta_element_set_no": 999,
        "meta_rev_at_epoch": 93009,
        "meta_bstar": 0.0012069056,
        "meta_mean_motion_dot": 1.525e-05,
        "meta_mean_motion_ddot": 0,
        "tle_line1": "1 31665U 99025CBX 25333.58038492  .00001525  00000+0  12069-2 0  9993",
        "tle_line2": "2 31665  98.4512  17.8375 0190024 222.9369 135.6823 13.84758836930094"
      },
      "geometry": {
        "type": "Point",
        "coordinates": [
          88.4794229172745,
          -80.74050897261147
        ]
      }
    },
    {
      "type": "Feature",
      "properties": {
        "norad_id": 31666,
        "name": "FENGYUN 1C DEB",
        "group": "fengyun-1c-debris",
        "lat": 71.34263816878386,
        "lon": -26.169541285046385,
        "alt_km": 607.0166771576178,
        "timestamp": "2025-12-04T23:34:06.006247+00:00",
        "meta_object_name": "FENGYUN 1C DEB",
        "meta_object_id": "1999-025CBY",
        "meta_epoch": "2025-12-01T09:15:11.992608",
        "meta_mean_motion": 14.82644549,
        "meta_eccentricity": 0.00263225,
        "meta_inclination": 98.6562,
        "meta_ra_of_asc_node": 123.1201,
        "meta_arg_of_pericenter": 188.8412,
        "meta_mean_anomaly": 171.2339,
        "meta_ephemeris_type": 0,
        "meta_classification_type": "U",
        "meta_norad_cat_id": 31666,
        "meta_element_set_no": 999,
        "meta_rev_at_epoch": 97103,
        "meta_bstar": 0.0054771362,
        "meta_mean_motion_dot": 0.0004461,
        "meta_mean_motion_ddot": 0,
        "tle_line1": "1 31666U 99025CBY 25335.38555547  .00044610  00000+0  54771-2 0  9997",
        "tle_line2": "2 31666  98.6562 123.1201 0026322 188.8412 171.2339 14.82644549971030"
      },
      "geometry": {
        "type": "Point",
        "coordinates": [
          -26.169541285046385,
          71.34263816878386
        ]
      }
    },
    {
      "type": "Feature",
      "properties": {
        "norad_id": 31667,
        "name": "FENGYUN 1C DEB",
        "group": "fengyun-1c-debris",
        "lat": 80.87459383636286,
        "lon": 105.72424581844648,
        "alt_km": 771.2424775122818,
        "timestamp": "2025-12-04T23:34:06.006258+00:00",
        "meta_object_name": "FENGYUN 1C DEB",
        "meta_object_id": "1999-025CBZ",
        "meta_epoch": "2025-12-03T10:02:22.672608",
        "meta_mean_motion": 14.2348358,
        "meta_eccentricity": 0.00516043,
        "meta_inclination": 99.0856,
        "meta_ra_of_asc_node": 189.1139,
        "meta_arg_of_pericenter": 113.7693,
        "meta_mean_anomaly": 246.8908,
        "meta_ephemeris_type": 0,
        "meta_classification_type": "U",
        "meta_norad_cat_id": 31667,
        "meta_element_set_no": 999,
        "meta_rev_at_epoch": 55860,
        "meta_bstar": 0.0003571101,
        "meta_mean_motion_dot": 7.76e-06,
        "meta_mean_motion_ddot": 0,
        "tle_line1": "1 31667U 99025CBZ 25337.41831797  .00000776  00000+0  35711-3 0  9997",
        "tle_line2": "2 31667  99.0856 189.1139 0051604 113.7693 246.8908 14.23483580558609"
      },
      "geometry": {
        "type": "Point",
        "coordinates": [
          105.72424581844648,
          80.87459383636286
        ]
      }
    },
    {
      "type": "Feature",
      "properties": {
        "norad_id": 31672,
        "name": "FENGYUN 1C DEB",
        "group": "fengyun-1c-debris",
        "lat": 55.774502165942884,
        "lon": -0.5111833285857554,
        "alt_km": 753.3635552965734,
        "timestamp": "2025-12-04T23:34:06.006272+00:00",
        "meta_object_name": "FENGYUN 1C DEB",
        "meta_object_id": "1999-025CCE",
        "meta_epoch": "2025-12-03T05:37:36.272640",
        "meta_mean_motion": 14.50722016,
        "meta_eccentricity": 0.0108218,
        "meta_inclination": 98.9573,
        "meta_ra_of_asc_node": 164.223,
        "meta_arg_of_pericenter": 10.2835,
        "meta_mean_anomaly": 350.0536,
        "meta_ephemeris_type": 0,
        "meta_classification_type": "U",
        "meta_norad_cat_id": 31672,
        "meta_element_set_no": 999,
        "meta_rev_at_epoch": 64733,
        "meta_bstar": 0.001939,
        "meta_mean_motion_dot": 8.176e-05,
        "meta_mean_motion_ddot": 0,
        "tle_line1": "1 31672U 99025CCE 25337.23444760  .00008176  00000+0  19390-2 0  9999",
        "tle_line2": "2 31672  98.9573 164.2230 0108218  10.2835 350.0536 14.50722016647332"
      },
      "geometry": {
        "type": "Point",
        "coordinates": [
          -0.5111833285857554,
          55.774502165942884
        ]
      }
    },
    {
      "type": "Feature",
      "properties": {
        "norad_id": 31673,
        "name": "FENGYUN 1C DEB",
        "group": "fengyun-1c-debris",
        "lat": -76.57255699818735,
        "lon": -143.3872499129029,
        "alt_km": 871.5794949588835,
        "timestamp": "2025-12-04T23:34:06.006282+00:00",
        "meta_object_name": "FENGYUN 1C DEB",
        "meta_object_id": "1999-025CCF",
        "meta_epoch": "2025-12-01T12:05:46.557312",
        "meta_mean_motion": 14.31920513,
        "meta_eccentricity": 0.01258857,
        "meta_inclination": 99.374,
        "meta_ra_of_asc_node": 169.0754,
        "meta_arg_of_pericenter": 81.1692,
        "meta_mean_anomaly": 280.3719,
        "meta_ephemeris_type": 0,
        "meta_classification_type": "U",
        "meta_norad_cat_id": 31673,
        "meta_element_set_no": 999,
        "meta_rev_at_epoch": 64730,
        "meta_bstar": 0.00025702529,
        "meta_mean_motion_dot": 7e-06,
        "meta_mean_motion_ddot": 0,
        "tle_line1": "1 31673U 99025CCF 25335.50401108  .00000700  00000+0  25703-3 0  9998",
        "tle_line2": "2 31673  99.3740 169.0754 0125885  81.1692 280.3719 14.31920513647301"
      },
      "geometry": {
        "type": "Point",
        "coordinates": [
          -143.3872499129029,
          -76.57255699818735
        ]
      }
    }
  ]
}